[{"OBJECT_NAME":"STARLINK-30253","OBJECT_ID":"2023-115E","EPOCH":"2026-03-09T04:37:31.564416","MEAN_MOTION":15.27577538,"ECCENTRICITY":8.341e-5,"INCLINATION":42.9995,"RA_OF_ASC_NODE":4.5394,"ARG_OF_PERICENTER":276.6671,"MEAN_ANOMALY":83.4085,"EPHEMERIS_TYPE":0,"CLASSIFICATION_TYPE":"U","NORAD_CAT_ID":57525,"ELEMENT_SET_NO":999,"REV_AT_EPOCH":14227,"BSTAR":5.0811074e-5,"MEAN_MOTION_DOT":1.136e-5,"MEAN_MOTION_DDOT":0},{"OBJECT_NAME":"FLOCK 4G-3","OBJECT_ID":"2025-009AG","EPOCH":"2026-03-09T19:14:30.392160","MEAN_MOTION":15.2717931,"ECCENTRICITY":0.00013196,"INCLINATION":97.4062,"RA_OF_ASC_NODE":151.4068,"ARG_OF_PERICENTER":293.2042,"MEAN_ANOMALY":66.9058,"EPHEMERIS_TYPE":0,"CLASSIFICATION_TYPE":"U","NORAD_CAT_ID":62639,"ELEMENT_SET_NO":999,"REV_AT_EPOCH":6372,"BSTAR":0.0004338875,"MEAN_MOTION_DOT":0.00011494,"MEAN_MOTION_DDOT":0}]
